[{"CCSDS_OMM_VERS":"2.0","COMMENT":"GENERATED VIA SPACE-TRACK.ORG API","CREATION_DATE":"2020-04-03T18:22:24","ORIGINATOR":"18 SPCS","OBJECT_NAME":"GALILEO-FM3","OBJECT_ID":"2012-055A","CENTER_NAME":"EARTH","REF_FRAME":"TEME","TIME_SYSTEM":"UTC","MEAN_ELEMENT_THEORY":"SGP4","EPOCH":"2020-04-03T11:57:23.436288","MEAN_MOTION":"1.70473672","ECCENTRICITY":"0.00041050","INCLINATION":"54.9641","RA_OF_ASC_NODE":"163.8440","ARG_OF_PERICENTER":"262.6501","MEAN_ANOMALY":"97.3682","EPHEMERIS_TYPE":"0","CLASSIFICATION_TYPE":"U","NORAD_CAT_ID":"38857","ELEMENT_SET_NO":"999","REV_AT_EPOCH":"4653","BSTAR":"0.00000000000000","MEAN_MOTION_DOT":"0.00000020","MEAN_MOTION_DDOT":"0.0000000000000","SEMIMAJOR_AXIS":"29600.358","PERIOD":"844.705","APOAPSIS":"23234.373","PERIAPSIS":"23210.072","OBJECT_TYPE":"PAYLOAD","RCS_SIZE":"LARGE","COUNTRY_CODE":"ESA","LAUNCH_DATE":"2012-10-12","SITE":"FRGUI","DECAY_DATE":null,"FILE":"2728165","GP_ID":"151543458","TLE_LINE0":"0 GALILEO-FM3","TLE_LINE1":"1 38857U 12055A   20094.49818792 +.00000020 +00000-0 +00000-0 0  9999","TLE_LINE2":"2 38857 054.9641 163.8440 0004105 262.6501 097.3682 01.70473672046530"},{"CCSDS_OMM_VERS":"2.0","COMMENT":"GENERATED VIA SPACE-TRACK.ORG API","CREATION_DATE":"2020-04-04T01:22:09","ORIGINATOR":"18 SPCS","OBJECT_NAME":"GALILEO-FM3","OBJECT_ID":"2012-055A","CENTER_NAME":"EARTH","REF_FRAME":"TEME","TIME_SYSTEM":"UTC","MEAN_ELEMENT_THEORY":"SGP4","EPOCH":"2020-04-03T11:57:23.436288","MEAN_MOTION":"1.70473672","ECCENTRICITY":"0.00041050","INCLINATION":"54.9641","RA_OF_ASC_NODE":"163.8440","ARG_OF_PERICENTER":"262.6501","MEAN_ANOMALY":"97.3682","EPHEMERIS_TYPE":"0","CLASSIFICATION_TYPE":"U","NORAD_CAT_ID":"38857","ELEMENT_SET_NO":"999","REV_AT_EPOCH":"4653","BSTAR":"0.00000000000000","MEAN_MOTION_DOT":"0.00000020","MEAN_MOTION_DDOT":"0.0000000000000","SEMIMAJOR_AXIS":"29600.358","PERIOD":"844.705","APOAPSIS":"23234.373","PERIAPSIS":"23210.072","OBJECT_TYPE":"PAYLOAD","RCS_SIZE":"LARGE","COUNTRY_CODE":"ESA","LAUNCH_DATE":"2012-10-12","SITE":"FRGUI","DECAY_DATE":null,"FILE":"2728320","GP_ID":"151566686","TLE_LINE0":"0 GALILEO-FM3","TLE_LINE1":"1 38857U 12055A   20094.49818792 +.00000020 +00000-0 +00000-0 0  9999","TLE_LINE2":"2 38857 054.9641 163.8440 0004105 262.6501 097.3682 01.70473672046530"},{"CCSDS_OMM_VERS":"2.0","COMMENT":"GENERATED VIA SPACE-TRACK.ORG API","CREATION_DATE":"2020-04-06T02:34:34","ORIGINATOR":"18 SPCS","OBJECT_NAME":"GALILEO-FM3","OBJECT_ID":"2012-055A","CENTER_NAME":"EARTH","REF_FRAME":"TEME","TIME_SYSTEM":"UTC","MEAN_ELEMENT_THEORY":"SGP4","EPOCH":"2020-04-05T06:11:26.986272","MEAN_MOTION":"1.70473651","ECCENTRICITY":"0.00041810","INCLINATION":"54.9644","RA_OF_ASC_NODE":"163.7954","ARG_OF_PERICENTER":"263.0467","MEAN_ANOMALY":"96.9790","EPHEMERIS_TYPE":"0","CLASSIFICATION_TYPE":"U","NORAD_CAT_ID":"38857","ELEMENT_SET_NO":"999","REV_AT_EPOCH":"4656","BSTAR":"0.00000000000000","MEAN_MOTION_DOT":"0.00000025","MEAN_MOTION_DDOT":"0.0000000000000","SEMIMAJOR_AXIS":"29600.360","PERIOD":"844.705","APOAPSIS":"23234.601","PERIAPSIS":"23209.849","OBJECT_TYPE":"PAYLOAD","RCS_SIZE":"LARGE","COUNTRY_CODE":"ESA","LAUNCH_DATE":"2012-10-12","SITE":"FRGUI","DECAY_DATE":null,"FILE":"2729307","GP_ID":"151689742","TLE_LINE0":"0 GALILEO-FM3","TLE_LINE1":"1 38857U 12055A   20096.25795123 +.00000025 +00000-0 +00000-0 0  9992","TLE_LINE2":"2 38857 054.9644 163.7954 0004181 263.0467 096.9790 01.70473651046567"},{"CCSDS_OMM_VERS":"2.0","COMMENT":"GENERATED VIA SPACE-TRACK.ORG API","CREATION_DATE":"2020-04-05T16:25:13","ORIGINATOR":"18 SPCS","OBJECT_NAME":"GALILEO-FM3","OBJECT_ID":"2012-055A","CENTER_NAME":"EARTH","REF_FRAME":"TEME","TIME_SYSTEM":"UTC","MEAN_ELEMENT_THEORY":"SGP4","EPOCH":"2020-04-05T06:11:27.028608","MEAN_MOTION":"1.70473654","ECCENTRICITY":"0.00041610","INCLINATION":"54.9644","RA_OF_ASC_NODE":"163.7954","ARG_OF_PERICENTER":"262.9425","MEAN_ANOMALY":"97.0834","EPHEMERIS_TYPE":"0","CLASSIFICATION_TYPE":"U","NORAD_CAT_ID":"38857","ELEMENT_SET_NO":"999","REV_AT_EPOCH":"4656","BSTAR":"0.00000000000000","MEAN_MOTION_DOT":"0.00000025","MEAN_MOTION_DDOT":"0.0000000000000","SEMIMAJOR_AXIS":"29600.360","PERIOD":"844.705","APOAPSIS":"23234.541","PERIAPSIS":"23209.908","OBJECT_TYPE":"PAYLOAD","RCS_SIZE":"LARGE","COUNTRY_CODE":"ESA","LAUNCH_DATE":"2012-10-12","SITE":"FRGUI","DECAY_DATE":null,"FILE":"2729125","GP_ID":"151645725","TLE_LINE0":"0 GALILEO-FM3","TLE_LINE1":"1 38857U 12055A   20096.25795172 +.00000025 +00000-0 +00000-0 0  9996","TLE_LINE2":"2 38857 054.9644 163.7954 0004161 262.9425 097.0834 01.70473654046561"},{"CCSDS_OMM_VERS":"2.0","COMMENT":"GENERATED VIA SPACE-TRACK.ORG API","CREATION_DATE":"2020-04-06T18:43:07","ORIGINATOR":"18 SPCS","OBJECT_NAME":"GALILEO-FM3","OBJECT_ID":"2012-055A","CENTER_NAME":"EARTH","REF_FRAME":"TEME","TIME_SYSTEM":"UTC","MEAN_ELEMENT_THEORY":"SGP4","EPOCH":"2020-04-06T10:20:49.621632","MEAN_MOTION":"1.70473650","ECCENTRICITY":"0.00042020","INCLINATION":"54.9646","RA_OF_ASC_NODE":"163.7631","ARG_OF_PERICENTER":"263.1743","MEAN_ANOMALY":"96.8580","EPHEMERIS_TYPE":"0","CLASSIFICATION_TYPE":"U","NORAD_CAT_ID":"38857","ELEMENT_SET_NO":"999","REV_AT_EPOCH":"4658","BSTAR":"0.00000000000000","MEAN_MOTION_DOT":"0.00000029","MEAN_MOTION_DDOT":"0.0000000000000","SEMIMAJOR_AXIS":"29600.360","PERIOD":"844.705","APOAPSIS":"23234.663","PERIAPSIS":"23209.787","OBJECT_TYPE":"PAYLOAD","RCS_SIZE":"LARGE","COUNTRY_CODE":"ESA","LAUNCH_DATE":"2012-10-12","SITE":"FRGUI","DECAY_DATE":null,"FILE":"2729621","GP_ID":"151717035","TLE_LINE0":"0 GALILEO-FM3","TLE_LINE1":"1 38857U 12055A   20097.43112988 +.00000029 +00000-0 +00000-0 0  9999","TLE_LINE2":"2 38857 054.9646 163.7631 0004202 263.1743 096.8580 01.70473650046580"},{"CCSDS_OMM_VERS":"2.0","COMMENT":"GENERATED VIA SPACE-TRACK.ORG API","CREATION_DATE":"2020-04-06T22:26:10","ORIGINATOR":"18 SPCS","OBJECT_NAME":"GALILEO-FM3","OBJECT_ID":"2012-055A","CENTER_NAME":"EARTH","REF_FRAME":"TEME","TIME_SYSTEM":"UTC","MEAN_ELEMENT_THEORY":"SGP4","EPOCH":"2020-04-06T10:20:49.621632","MEAN_MOTION":"1.70473650","ECCENTRICITY":"0.00042020","INCLINATION":"54.9646","RA_OF_ASC_NODE":"163.7631","ARG_OF_PERICENTER":"263.1743","MEAN_ANOMALY":"96.8580","EPHEMERIS_TYPE":"0","CLASSIFICATION_TYPE":"U","NORAD_CAT_ID":"38857","ELEMENT_SET_NO":"999","REV_AT_EPOCH":"4658","BSTAR":"0.00000000000000","MEAN_MOTION_DOT":"0.00000029","MEAN_MOTION_DDOT":"0.0000000000000","SEMIMAJOR_AXIS":"29600.360","PERIOD":"844.705","APOAPSIS":"23234.663","PERIAPSIS":"23209.787","OBJECT_TYPE":"PAYLOAD","RCS_SIZE":"LARGE","COUNTRY_CODE":"ESA","LAUNCH_DATE":"2012-10-12","SITE":"FRGUI","DECAY_DATE":null,"FILE":"2729667","GP_ID":"151723350","TLE_LINE0":"0 GALILEO-FM3","TLE_LINE1":"1 38857U 12055A   20097.43112988  .00000029  00000-0  00000+0 0  9998","TLE_LINE2":"2 38857  54.9646 163.7631 0004202 263.1743  96.8580  1.70473650 46580"},{"CCSDS_OMM_VERS":"2.0","COMMENT":"GENERATED VIA SPACE-TRACK.ORG API","CREATION_DATE":"2020-04-07T17:25:27","ORIGINATOR":"18 SPCS","OBJECT_NAME":"GALILEO-FM3","OBJECT_ID":"2012-055A","CENTER_NAME":"EARTH","REF_FRAME":"TEME","TIME_SYSTEM":"UTC","MEAN_ELEMENT_THEORY":"SGP4","EPOCH":"2020-04-07T00:25:30.856800","MEAN_MOTION":"1.70473645","ECCENTRICITY":"0.00042350","INCLINATION":"54.9646","RA_OF_ASC_NODE":"163.7470","ARG_OF_PERICENTER":"263.0532","MEAN_ANOMALY":"96.9818","EPHEMERIS_TYPE":"0","CLASSIFICATION_TYPE":"U","NORAD_CAT_ID":"38857","ELEMENT_SET_NO":"999","REV_AT_EPOCH":"4659","BSTAR":"0.00000000000000","MEAN_MOTION_DOT":"0.00000031","MEAN_MOTION_DDOT":"0.0000000000000","SEMIMAJOR_AXIS":"29600.361","PERIOD":"844.705","APOAPSIS":"23234.761","PERIAPSIS":"23209.690","OBJECT_TYPE":"PAYLOAD","RCS_SIZE":"LARGE","COUNTRY_CODE":"ESA","LAUNCH_DATE":"2012-10-12","SITE":"FRGUI","DECAY_DATE":null,"FILE":"2730177","GP_ID":"151769770","TLE_LINE0":"0 GALILEO-FM3","TLE_LINE1":"1 38857U 12055A   20098.01771825 +.00000031 +00000-0 +00000-0 0  9998","TLE_LINE2":"2 38857 054.9646 163.7470 0004235 263.0532 096.9818 01.70473645046592"},{"CCSDS_OMM_VERS":"2.0","COMMENT":"GENERATED VIA SPACE-TRACK.ORG API","CREATION_DATE":"2020-04-08T18:36:14","ORIGINATOR":"18 SPCS","OBJECT_NAME":"GALILEO-FM3","OBJECT_ID":"2012-055A","CENTER_NAME":"EARTH","REF_FRAME":"TEME","TIME_SYSTEM":"UTC","MEAN_ELEMENT_THEORY":"SGP4","EPOCH":"2020-04-07T14:30:11.982240","MEAN_MOTION":"1.70473650","ECCENTRICITY":"0.00042760","INCLINATION":"54.9649","RA_OF_ASC_NODE":"163.7308","ARG_OF_PERICENTER":"263.3000","MEAN_ANOMALY":"96.7370","EPHEMERIS_TYPE":"0","CLASSIFICATION_TYPE":"U","NORAD_CAT_ID":"38857","ELEMENT_SET_NO":"999","REV_AT_EPOCH":"4660","BSTAR":"0.00000000000000","MEAN_MOTION_DOT":"0.00000032","MEAN_MOTION_DDOT":"0.0000000000000","SEMIMAJOR_AXIS":"29600.360","PERIOD":"844.705","APOAPSIS":"23234.882","PERIAPSIS":"23209.568","OBJECT_TYPE":"PAYLOAD","RCS_SIZE":"LARGE","COUNTRY_CODE":"ESA","LAUNCH_DATE":"2012-10-12","SITE":"FRGUI","DECAY_DATE":null,"FILE":"2730800","GP_ID":"151843420","TLE_LINE0":"0 GALILEO-FM3","TLE_LINE1":"1 38857U 12055A   20098.60430535 +.00000032 +00000-0 +00000-0 0  9994","TLE_LINE2":"2 38857 054.9649 163.7308 0004276 263.3000 096.7370 01.70473650046602"}]